{
  "type": "FeatureCollection",
  "features": [
    {
      "type": "Feature",
      "properties": {
        "norad_id": 55268,
        "name": "GPS BIII-6  (PRN 28)",
        "group": "gnss",
        "lat": -36.88907569652404,
        "lon": 7.338539150548337,
        "alt_km": 20193.77552006977,
        "timestamp": "2025-12-15T07:02:37.862370+00:00",
        "meta_object_name": "GPS BIII-6  (PRN 28)",
        "meta_object_id": "2023-009A",
        "meta_epoch": "2025-12-13T12:37:03.021024",
        "meta_mean_motion": 2.00555696,
        "meta_eccentricity": 0.00037118,
        "meta_inclination": 55.1051,
        "meta_ra_of_asc_node": 155.8142,
        "meta_arg_of_pericenter": 357.4368,
        "meta_mean_anomaly": 33.2544,
        "meta_ephemeris_type": 0,
        "meta_classification_type": "U",
        "meta_norad_cat_id": 55268,
        "meta_element_set_no": 999,
        "meta_rev_at_epoch": 2152,
        "meta_bstar": 0,
        "meta_mean_motion_dot": 1e-06,
        "meta_mean_motion_ddot": 0,
        "tle_line1": "1 55268U 23009A   25347.52572941  .00000100  00000+0  00000+0 0  9995",
        "tle_line2": "2 55268  55.1051 155.8142 0003711 357.4368  33.2544  2.00555696 21528"
      },
      "geometry": {
        "type": "Point",
        "coordinates": [
          7.338539150548337,
          -36.88907569652404
        ]
      }
    },
    {
      "type": "Feature",
      "properties": {
        "norad_id": 56564,
        "name": "BEIDOU-3 G4 (C62)",
        "group": "gnss",
        "lat": 0.6051474265280187,
        "lon": -10.093626555031554,
        "alt_km": 35797.87801027555,
        "timestamp": "2025-12-15T07:02:37.862382+00:00",
        "meta_object_name": "BEIDOU-3 G4 (C62)",
        "meta_object_id": "2023-066A",
        "meta_epoch": "2025-12-14T21:01:39.976032",
        "meta_mean_motion": 1.00271754,
        "meta_eccentricity": 0.00028272,
        "meta_inclination": 0.81,
        "meta_ra_of_asc_node": 302.2267,
        "meta_arg_of_pericenter": 229.6359,
        "meta_mean_anomaly": 27.4061,
        "meta_ephemeris_type": 0,
        "meta_classification_type": "U",
        "meta_norad_cat_id": 56564,
        "meta_element_set_no": 999,
        "meta_rev_at_epoch": 954,
        "meta_bstar": 0,
        "meta_mean_motion_dot": -9.1e-07,
        "meta_mean_motion_ddot": 0,
        "tle_line1": "1 56564U 23066A   25348.87615713 -.00000091  00000+0  00000+0 0  9992",
        "tle_line2": "2 56564   0.8100 302.2267 0002827 229.6359  27.4061  1.00271754  9549"
      },
      "geometry": {
        "type": "Point",
        "coordinates": [
          -10.093626555031554,
          0.6051474265280187
        ]
      }
    },
    {
      "type": "Feature",
      "properties": {
        "norad_id": 56759,
        "name": "NVS-01 (IRNSS-1J)",
        "group": "gnss",
        "lat": 2.4160398616127385,
        "lon": -40.60973405721043,
        "alt_km": 35761.79971723102,
        "timestamp": "2025-12-15T07:02:37.862394+00:00",
        "meta_object_name": "NVS-01 (IRNSS-1J)",
        "meta_object_id": "2023-076A",
        "meta_epoch": "2025-12-14T22:35:38.473728",
        "meta_mean_motion": 1.00276585,
        "meta_eccentricity": 0.00088784,
        "meta_inclination": 2.6127,
        "meta_ra_of_asc_node": 251.5198,
        "meta_arg_of_pericenter": 15.0239,
        "meta_mean_anomaly": 285.7015,
        "meta_ephemeris_type": 0,
        "meta_classification_type": "U",
        "meta_norad_cat_id": 56759,
        "meta_element_set_no": 999,
        "meta_rev_at_epoch": 926,
        "meta_bstar": 0,
        "meta_mean_motion_dot": -3.13e-06,
        "meta_mean_motion_ddot": 0,
        "tle_line1": "1 56759U 23076A   25348.94141752 -.00000313  00000+0  00000+0 0  9991",
        "tle_line2": "2 56759   2.6127 251.5198 0008878  15.0239 285.7015  1.00276585  9263"
      },
      "geometry": {
        "type": "Point",
        "coordinates": [
          -40.60973405721043,
          2.4160398616127385
        ]
      }
    },
    {
      "type": "Feature",
      "properties": {
        "norad_id": 57517,
        "name": "COSMOS 2569 (703K)",
        "group": "gnss",
        "lat": -7.796989863123799,
        "lon": 75.20746520733533,
        "alt_km": 19119.66858993222,
        "timestamp": "2025-12-15T07:02:37.862407+00:00",
        "meta_object_name": "COSMOS 2569 (703K)",
        "meta_object_id": "2023-114A",
        "meta_epoch": "2025-12-13T21:31:33.711744",
        "meta_mean_motion": 2.13104015,
        "meta_eccentricity": 0.00105602,
        "meta_inclination": 65.1948,
        "meta_ra_of_asc_node": 78.8743,
        "meta_arg_of_pericenter": 286.9875,
        "meta_mean_anomaly": 72.9108,
        "meta_ephemeris_type": 0,
        "meta_classification_type": "U",
        "meta_norad_cat_id": 57517,
        "meta_element_set_no": 999,
        "meta_rev_at_epoch": 1831,
        "meta_bstar": 0,
        "meta_mean_motion_dot": -5.2e-07,
        "meta_mean_motion_ddot": 0,
        "tle_line1": "1 57517U 23114A   25347.89691796 -.00000052  00000+0  00000+0 0  9998",
        "tle_line2": "2 57517  65.1948  78.8743 0010560 286.9875  72.9108  2.13104015 18311"
      },
      "geometry": {
        "type": "Point",
        "coordinates": [
          75.20746520733533,
          -7.796989863123799
        ]
      }
    },
    {
      "type": "Feature",
      "properties": {
        "norad_id": 58654,
        "name": "BEIDOU-3 M28 (C50)",
        "group": "gnss",
        "lat": 48.70845074912331,
        "lon": -162.68344249908822,
        "alt_km": 21528.703989495785,
        "timestamp": "2025-12-15T07:02:37.862424+00:00",
        "meta_object_name": "BEIDOU-3 M28 (C50)",
        "meta_object_id": "2023-207A",
        "meta_epoch": "2025-12-14T14:03:38.782656",
        "meta_mean_motion": 1.86229809,
        "meta_eccentricity": 0.00024754,
        "meta_inclination": 55.5861,
        "meta_ra_of_asc_node": 68.5388,
        "meta_arg_of_pericenter": 270.5296,
        "meta_mean_anomaly": 89.4603,
        "meta_ephemeris_type": 0,
        "meta_classification_type": "U",
        "meta_norad_cat_id": 58654,
        "meta_element_set_no": 999,
        "meta_rev_at_epoch": 1340,
        "meta_bstar": 0,
        "meta_mean_motion_dot": -8.4e-07,
        "meta_mean_motion_ddot": 0,
        "tle_line1": "1 58654U 23207A   25348.58586554 -.00000084  00000+0  00000+0 0  9991",
        "tle_line2": "2 58654  55.5861  68.5388 0002475 270.5296  89.4603  1.86229809 13400"
      },
      "geometry": {
        "type": "Point",
        "coordinates": [
          -162.68344249908822,
          48.70845074912331
        ]
      }
    },
    {
      "type": "Feature",
      "properties": {
        "norad_id": 58655,
        "name": "BEIDOU-3 M26 (C48)",
        "group": "gnss",
        "lat": -50.88761761437832,
        "lon": -54.15306266537226,
        "alt_km": 21522.86226633519,
        "timestamp": "2025-12-15T07:02:37.862435+00:00",
        "meta_object_name": "BEIDOU-3 M26 (C48)",
        "meta_object_id": "2023-207B",
        "meta_epoch": "2025-12-14T09:12:13.791744",
        "meta_mean_motion": 1.86231292,
        "meta_eccentricity": 0.00038911,
        "meta_inclination": 55.5879,
        "meta_ra_of_asc_node": 68.532,
        "meta_arg_of_pericenter": 256.6064,
        "meta_mean_anomaly": 103.3685,
        "meta_ephemeris_type": 0,
        "meta_classification_type": "U",
        "meta_norad_cat_id": 58655,
        "meta_element_set_no": 999,
        "meta_rev_at_epoch": 1338,
        "meta_bstar": 0,
        "meta_mean_motion_dot": -8.4e-07,
        "meta_mean_motion_ddot": 0,
        "tle_line1": "1 58655U 23207B   25348.38349296 -.00000084  00000+0  00000+0 0  9990",
        "tle_line2": "2 58655  55.5879  68.5320 0003891 256.6064 103.3685  1.86231292 13389"
      },
      "geometry": {
        "type": "Point",
        "coordinates": [
          -54.15306266537226,
          -50.88761761437832
        ]
      }
    },
    {
      "type": "Feature",
      "properties": {
        "norad_id": 59598,
        "name": "GSAT0225 (GALILEO 29)",
        "group": "gnss",
        "lat": 35.70977135362253,
        "lon": 136.41776450286127,
        "alt_km": 23221.954933668192,
        "timestamp": "2025-12-15T07:02:37.862447+00:00",
        "meta_object_name": "GSAT0225 (GALILEO 29)",
        "meta_object_id": "2024-079A",
        "meta_epoch": "2025-12-13T14:17:14.853120",
        "meta_mean_motion": 1.7047497,
        "meta_eccentricity": 0.00020845,
        "meta_inclination": 55.0023,
        "meta_ra_of_asc_node": 106.2711,
        "meta_arg_of_pericenter": 178.8578,
        "meta_mean_anomaly": 264.3288,
        "meta_ephemeris_type": 0,
        "meta_classification_type": "U",
        "meta_norad_cat_id": 59598,
        "meta_element_set_no": 999,
        "meta_rev_at_epoch": 1015,
        "meta_bstar": 0,
        "meta_mean_motion_dot": -1e-08,
        "meta_mean_motion_ddot": 0,
        "tle_line1": "1 59598U 24079A   25347.59531080 -.00000001  00000+0  00000+0 0  9990",
        "tle_line2": "2 59598  55.0023 106.2711 0002084 178.8578 264.3288  1.70474970 10158"
      },
      "geometry": {
        "type": "Point",
        "coordinates": [
          136.41776450286127,
          35.70977135362253
        ]
      }
    }
  ]
}